[{"OBJECT_NAME":"MKA-PN 1","OBJECT_ID":"2012-039E","EPOCH":"2026-03-09T22:22:36.240960","MEAN_MOTION":14.25388825,"ECCENTRICITY":0.00124264,"INCLINATION":98.958,"RA_OF_ASC_NODE":183.7893,"ARG_OF_PERICENTER":95.296,"MEAN_ANOMALY":264.9637,"EPHEMERIS_TYPE":0,"CLASSIFICATION_TYPE":"U","NORAD_CAT_ID":38711,"ELEMENT_SET_NO":999,"REV_AT_EPOCH":70870,"BSTAR":0.00011675607,"MEAN_MOTION_DOT":2.29e-6,"MEAN_MOTION_DDOT":0},{"OBJECT_NAME":"FENGYUN 1C DEB","OBJECT_ID":"1999-025ASX","EPOCH":"2026-03-08T22:53:23.170560","MEAN_MOTION":14.18402282,"ECCENTRICITY":0.00222587,"INCLINATION":98.5913,"RA_OF_ASC_NODE":52.4632,"ARG_OF_PERICENTER":243.9895,"MEAN_ANOMALY":181.2522,"EPHEMERIS_TYPE":0,"CLASSIFICATION_TYPE":"U","NORAD_CAT_ID":30737,"ELEMENT_SET_NO":999,"REV_AT_EPOCH":98255,"BSTAR":0.00039773349,"MEAN_MOTION_DOT":7.8e-6,"MEAN_MOTION_DDOT":0}]
